COSMOS 2251 DEB         
1 38068U 93036BSA 25330.00859101  .00000811  00000+0  28751-3 0  9998
2 38068  74.0219 338.9788 0024090  72.1007 288.2769 14.35960004664064
COSMOS 2251 DEB         
1 38197U 93036BSM 25332.87908781  .00032073  00000+0  43874-2 0  9994
2 38197  73.9400  24.2388 0129425 264.8172  93.8219 14.72698090855515
COSMOS 2251 DEB         
1 38199U 93036BSP 25331.96688910  .00000600  00000+0  48525-3 0  9994
2 38199  73.9549  86.4587 0369073  15.9405 345.2961 13.64769846608209
COSMOS 2251 DEB         
1 38220U 93036BTL 25332.03934522  .00037330  00000+0  37129-2 0  9998
2 38220  74.0143  97.8475 0004303 123.0832 237.0764 14.91478586711512
COSMOS 2251 DEB         
1 38479U 93036BTP 25319.53202222  .00008824  00000+0  28108-2 0  9992
2 38479  74.0077 234.4912 0084692 348.2771 195.3627 14.37875238642962
