{
  "type": "FeatureCollection",
  "features": [
    {
      "type": "Feature",
      "properties": {
        "OBJECT_NAME": "COSMOS 2251 DEB",
        "OBJECT_ID": "1993-036BSA",
        "EPOCH": "2025-11-26T00:12:22.263264",
        "MEAN_MOTION": 14.35960004,
        "ECCENTRICITY": 0.00240903,
        "INCLINATION": 74.0219,
        "RA_OF_ASC_NODE": 338.9788,
        "ARG_OF_PERICENTER": 72.1007,
        "MEAN_ANOMALY": 288.2769,
        "EPHEMERIS_TYPE": 0,
        "CLASSIFICATION_TYPE": "U",
        "NORAD_CAT_ID": 38068,
        "ELEMENT_SET_NO": 999,
        "REV_AT_EPOCH": 66406,
        "BSTAR": 0.00028750999,
        "MEAN_MOTION_DOT": 8.11e-06,
        "MEAN_MOTION_DDOT": 0,
        "norad_id": 38068,
        "name": "COSMOS 2251 DEB",
        "group": "cosmos-2251-debris",
        "longitude_deg": NaN,
        "latitude_deg": NaN,
        "alt_km": NaN,
        "orbit_class": "HEO",
        "timestamp": "2025-11-30T09:33:02.610352+00:00"
      },
      "geometry": {
        "type": "Point",
        "coordinates": [
          NaN,
          NaN
        ]
      }
    },
    {
      "type": "Feature",
      "properties": {
        "OBJECT_NAME": "COSMOS 2251 DEB",
        "OBJECT_ID": "1993-036BSM",
        "EPOCH": "2025-11-28T21:05:53.187648",
        "MEAN_MOTION": 14.72698091,
        "ECCENTRICITY": 0.01294249,
        "INCLINATION": 73.94,
        "RA_OF_ASC_NODE": 24.2388,
        "ARG_OF_PERICENTER": 264.8172,
        "MEAN_ANOMALY": 93.8219,
        "EPHEMERIS_TYPE": 0,
        "CLASSIFICATION_TYPE": "U",
        "NORAD_CAT_ID": 38197,
        "ELEMENT_SET_NO": 999,
        "REV_AT_EPOCH": 85551,
        "BSTAR": 0.0043874316,
        "MEAN_MOTION_DOT": 0.00032073,
        "MEAN_MOTION_DDOT": 0,
        "norad_id": 38197,
        "name": "COSMOS 2251 DEB",
        "group": "cosmos-2251-debris",
        "longitude_deg": NaN,
        "latitude_deg": NaN,
        "alt_km": NaN,
        "orbit_class": "HEO",
        "timestamp": "2025-11-30T09:33:02.610359+00:00"
      },
      "geometry": {
        "type": "Point",
        "coordinates": [
          NaN,
          NaN
        ]
      }
    },
    {
      "type": "Feature",
      "properties": {
        "OBJECT_NAME": "COSMOS 2251 DEB",
        "OBJECT_ID": "1993-036BSP",
        "EPOCH": "2025-11-27T23:12:19.218240",
        "MEAN_MOTION": 13.64769846,
        "ECCENTRICITY": 0.03690733,
        "INCLINATION": 73.9549,
        "RA_OF_ASC_NODE": 86.4587,
        "ARG_OF_PERICENTER": 15.9405,
        "MEAN_ANOMALY": 345.2961,
        "EPHEMERIS_TYPE": 0,
        "CLASSIFICATION_TYPE": "U",
        "NORAD_CAT_ID": 38199,
        "ELEMENT_SET_NO": 999,
        "REV_AT_EPOCH": 60820,
        "BSTAR": 0.00048524509,
        "MEAN_MOTION_DOT": 6e-06,
        "MEAN_MOTION_DDOT": 0,
        "norad_id": 38199,
        "name": "COSMOS 2251 DEB",
        "group": "cosmos-2251-debris",
        "longitude_deg": NaN,
        "latitude_deg": NaN,
        "alt_km": NaN,
        "orbit_class": "HEO",
        "timestamp": "2025-11-30T09:33:02.610367+00:00"
      },
      "geometry": {
        "type": "Point",
        "coordinates": [
          NaN,
          NaN
        ]
      }
    },
    {
      "type": "Feature",
      "properties": {
        "OBJECT_NAME": "COSMOS 2251 DEB",
        "OBJECT_ID": "1993-036BTL",
        "EPOCH": "2025-11-28T00:56:39.427008",
        "MEAN_MOTION": 14.91478586,
        "ECCENTRICITY": 0.00043038,
        "INCLINATION": 74.0143,
        "RA_OF_ASC_NODE": 97.8475,
        "ARG_OF_PERICENTER": 123.0832,
        "MEAN_ANOMALY": 237.0764,
        "EPHEMERIS_TYPE": 0,
        "CLASSIFICATION_TYPE": "U",
        "NORAD_CAT_ID": 38220,
        "ELEMENT_SET_NO": 999,
        "REV_AT_EPOCH": 71151,
        "BSTAR": 0.0037129023,
        "MEAN_MOTION_DOT": 0.0003733,
        "MEAN_MOTION_DDOT": 0,
        "norad_id": 38220,
        "name": "COSMOS 2251 DEB",
        "group": "cosmos-2251-debris",
        "longitude_deg": NaN,
        "latitude_deg": NaN,
        "alt_km": NaN,
        "orbit_class": "HEO",
        "timestamp": "2025-11-30T09:33:02.610389+00:00"
      },
      "geometry": {
        "type": "Point",
        "coordinates": [
          NaN,
          NaN
        ]
      }
    },
    {
      "type": "Feature",
      "properties": {
        "OBJECT_NAME": "COSMOS 2251 DEB",
        "OBJECT_ID": "1993-036BTP",
        "EPOCH": "2025-11-15T12:46:06.719808",
        "MEAN_MOTION": 14.37875238,
        "ECCENTRICITY": 0.00846922,
        "INCLINATION": 74.0077,
        "RA_OF_ASC_NODE": 234.4912,
        "ARG_OF_PERICENTER": 348.2771,
        "MEAN_ANOMALY": 195.3627,
        "EPHEMERIS_TYPE": 0,
        "CLASSIFICATION_TYPE": "U",
        "NORAD_CAT_ID": 38479,
        "ELEMENT_SET_NO": 999,
        "REV_AT_EPOCH": 64296,
        "BSTAR": 0.00281077,
        "MEAN_MOTION_DOT": 8.824e-05,
        "MEAN_MOTION_DDOT": 0,
        "norad_id": 38479,
        "name": "COSMOS 2251 DEB",
        "group": "cosmos-2251-debris",
        "longitude_deg": NaN,
        "latitude_deg": NaN,
        "alt_km": NaN,
        "orbit_class": "HEO",
        "timestamp": "2025-11-30T09:33:02.610395+00:00"
      },
      "geometry": {
        "type": "Point",
        "coordinates": [
          NaN,
          NaN
        ]
      }
    }
  ]
}